STARLINK-35849          
1 66348C 25254A   26087.90465278 -.00042104  00000+0 -14191-2 0   877
2 66348  53.1577 143.4741 0001215  87.4213 277.2371 15.30210542    18
STARLINK-35848          
1 66349C 25254B   26087.92131944  .00009589  00000+0  32325-3 0   878
2 66349  53.1597 143.1534 0001514  83.7461 134.9232 15.30181105    11
STARLINK-35829          
1 66350C 25254C   26087.93659722  .00002324  00000+0  78335-4 0   872
2 66350  53.1590 142.9672 0001320  95.2550 265.7987 15.30180244    11
STARLINK-35828          
1 66351C 25254D   26087.99215278  .00019070  00000+0  64281-3 0   873
2 66351  53.1583 142.6401 0001275  91.2927 250.8702 15.30177644    14
STARLINK-35850          
1 66352C 25254E   26087.92201389 -.00011068  00000+0 -37308-3 0   876
2 66352  53.1572 142.8288 0001183  85.3005 300.0595 15.30191646    13
STARLINK-35869          
1 66353C 25254F   26088.01784722  .00054910  00000+0  18508-2 0   887
2 66353  53.1569 142.3135 0001201  88.5700 139.9090 15.30160936    11
STARLINK-35895          
1 66354C 25254G   26088.01020833  .00002056  00000+0  69319-4 0   886
2 66354  53.1574 143.0144 0001197  92.6321 122.1972 15.30182912    16
STARLINK-35861          
1 66355C 25254H   26087.92965278 -.00022303  00000+0 -75179-3 0   875
2 66355  53.1580 143.3104 0001125  87.3332  78.3917 15.30199323    12
STARLINK-35851          
1 66356C 25254J   26087.92409722 -.00016557  00000+0 -55813-3 0   870
2 66356  53.1585 143.3017 0001192  95.1532  57.4004 15.30193477    13
STARLINK-35817          
1 66357C 25254K   26087.95187500  .00027858  00000+0  93933-3 0   870
2 66357  53.1590 143.0684 0001265  91.1941 266.8308 15.30163120    13
STARLINK-35807          
1 66358C 25254L   26087.92340278 -.00014680  00000+0 -49487-3 0   877
2 66358  53.1597 143.1651 0001335  93.4565 125.0671 15.30193177    15
STARLINK-35805          
1 66359C 25254M   26087.97340278  .00037512  00000+0  12640-2 0   870
2 66359  53.1583 142.7138 0001240  90.8195 153.8130 15.30180619    17
STARLINK-35823          
1 66360C 25254N   26087.96506944 -.00003050  00000+0 -10284-3 0   870
2 66360  53.1573 142.6146 0001211  96.6298 171.8714 15.30184296    15
STARLINK-35813          
1 66361C 25254P   26087.99493056  .00017795  00000+0  59987-3 0   875
2 66361  53.1574 142.5445 0001216  99.1925 299.0009 15.30175995    14
STARLINK-35822          
1 66362C 25254Q   26088.02201389  .00023516  00000+0  79268-3 0   880
2 66362  53.1579 142.9030 0001178  88.7461 214.4276 15.30175740    15
STARLINK-35806          
1 66363C 25254R   26087.98868056  .00044252  00000+0  14919-2 0   875
2 66363  53.1572 143.1385 0001127  89.3215 349.4091 15.30160936    18
STARLINK-35797          
1 66364C 25254S   26087.96645833  .00055125  00000+0  18584-2 0   873
2 66364  53.1581 143.1258 0001367  87.6108 286.7424 15.30156186    11
STARLINK-35827          
1 66365C 25254T   26087.93381944  .00037751  00000+0  12712-2 0   873
2 66365  53.1592 143.0110 0001179  83.5872 244.7732 15.30201477    14
STARLINK-35845          
1 66366C 25254U   26087.97756944  .00022401  00000+0  75522-3 0   879
2 66366  53.1593 142.9001 0001223  95.6335  67.2698 15.30171494    15
STARLINK-35846          
1 66367C 25254V   26087.93173611  .00015276  00000+0  51500-3 0   872
2 66367  53.1571 142.7224 0001195  86.2054  21.8348 15.30175540    13
STARLINK-34861          
1 66368C 25254W   26087.90812500 -.00032042  00000+0 -10802-2 0   878
2 66368  53.1592 140.8841 0001661  91.2125 133.3070 15.30200191    16
STARLINK-35795          
1 66369C 25254X   26087.94631944  .00020057  00000+0  67622-3 0   878
2 66369  53.1595 140.7758 0001490  91.4131 308.7358 15.30169731    16
STARLINK-35824          
1 66370C 25254Y   26087.90881944 -.00021676  00000+0 -73074-3 0   871
2 66370  53.1594 140.9154 0001327  90.0818 120.8199 15.30194186    13
STARLINK-35804          
1 66371C 25254Z   26087.92062500 -.00021259  00000+0 -71667-3 0   876
2 66371  53.1590 140.7908 0001291  92.4150 218.4525 15.30194176    16
STARLINK-35821          
1 66372C 25254AA  26087.94840278 -.00010097  00000+0 -34033-3 0   879
2 66372  53.1586 140.6277 0001212  92.6366  28.7872 15.30193361    16
STARLINK-35809          
1 66373C 25254AB  26087.95048611 -.00011317  00000+0 -38151-3 0   873
2 66373  53.1582 140.5827 0001241  91.1776  59.1800 15.30189556    14
STARLINK-35831          
1 66374C 25254AC  26087.95256944 -.00008522  00000+0 -28729-3 0   878
2 66374  53.1577 140.2512 0001101  97.6215 227.0857 15.30188969    16
STARLINK-35826          
1 66375C 25254AD  26088.00118056  .00039226  00000+0  13223-2 0   883
2 66375  53.1592 139.8513 0001235  97.4452 222.4436 15.30167374    17
STARLINK-35139          
1 66380C 25257A   26087.91020833  .00039447  00000+0  13301-2 0   877
2 66380  53.1581 127.6340 0001334  83.1841  69.0829 15.30158699    19
STARLINK-35158          
1 66381C 25257B   26088.02201389  .00042449  00000+0  14307-2 0   882
2 66381  53.1573 127.5956 0001715  89.1161  75.1923 15.30168976    19
STARLINK-35639          
1 66382C 25257C   26087.97756944 -.00038830  00000+0 -13113-2 0   872
2 66382  53.1577 127.7675 0001284  82.2759 214.5337 15.30147301    19
STARLINK-35690          
1 66383C 25257D   26087.98104167 -.00042409  00000+0 -14296-2 0   878
2 66383  53.1575 127.2237 0001240  99.3368 124.1884 15.30205788    11
STARLINK-35662          
1 66384C 25257E   26087.90187500 -.00005864  00000+0 -19768-3 0   877
2 66384  53.1574 127.5686 0001288  92.0998  66.6813 15.30187577    10
STARLINK-35659          
1 66385C 25257F   26087.95743056  .00019438  00000+0  65529-3 0   873
2 66385  53.1578 127.3681 0001283  92.8574 343.0503 15.30174507    18
STARLINK-35651          
1 66386C 25257G   26087.92062500 -.00010743  00000+0 -36213-3 0   879
2 66386  53.1574 127.4579 0001189  87.6560 186.0994 15.30192228    13
STARLINK-35661          
1 66387C 25257H   26087.94284722  .00025931  00000+0  87402-3 0   873
2 66387  53.1572 127.3312 0001193  90.9505 316.9183 15.30176252    10
STARLINK-35647          
1 66388C 25257J   26087.97479167  .00020910  00000+0  70490-3 0   877
2 66388  53.1572 127.1703 0001181  92.0848 137.6817 15.30174438    19
STARLINK-35694          
1 66389C 25257K   26087.90465278 -.00007998  00000+0 -26962-3 0   877
2 66389  53.1574 127.5419 0001240  90.2159  89.6915 15.30190403    16
STARLINK-35665          
1 66390C 25257L   26087.90812500 -.00012780  00000+0 -43077-3 0   874
2 66390  53.1582 127.6357 0001367  84.2651  50.8080 15.30195344    11
STARLINK-35656          
1 66391C 25257M   26087.91020833 -.00016448  00000+0 -55445-3 0   873
2 66391  53.1585 130.5794 0001205  91.8026 358.8627 15.30194004    14
STARLINK-35671          
1 66392C 25257N   26087.90534722  .00014130  00000+0  47631-3 0   872
2 66392  53.1573 127.4575 0001074  89.9745 134.4725 15.30178884    19
STARLINK-35652          
1 66393C 25257P   26087.95256944 -.00005568  00000+0 -18769-3 0   872
2 66393  53.1576 127.8907 0001110  93.5344  59.6576 15.30188643    19
STARLINK-35672          
1 66394C 25257Q   26087.91506944  .00006465  00000+0  21795-3 0   875
2 66394  53.1596 127.8115 0001336  87.4667 346.9898 15.30182127    13
STARLINK-35681          
1 66395C 25257R   26087.98729167  .00007652  00000+0  25774-3 0   877
2 66395  53.1582 127.2586 0001111  91.2123 131.7725 15.30209807    10
STARLINK-35669          
1 66396C 25257S   26087.99770833  .00033497  00000+0  11291-2 0   879
2 66396  53.1577 127.1529 0001250  91.6465 217.8980 15.30170562    12
STARLINK-35510          
1 66397C 25257T   26087.96159722  .00026878  00000+0  90611-3 0   874
2 66397  53.1572 127.2046 0001424  90.0422  78.6389 15.30170188    12
STARLINK-35642          
1 66398C 25257U   26087.91923611  .00017443  00000+0  58805-3 0   873
2 66398  53.1587 127.9621 0001185  91.0843 279.0966 15.30175159    18
STARLINK-35657          
1 66399C 25257V   26087.90118056  .00000708  00000+0  23861-4 0   873
2 66399  53.1588 128.0578 0001155  93.5913 171.2511 15.30185799    15
STARLINK-35667          
1 66400C 25257W   26087.98034722  .00033863  00000+0  11416-2 0   870
2 66400  53.1594 127.5507 0001268  92.5866 318.4087 15.30167473    14
STARLINK-35668          
1 66401C 25257X   26087.98243056  .00028148  00000+0  94888-3 0   878
2 66401  53.1595 127.4828 0001253  94.1523 357.4065 15.30171294    18
STARLINK-35644          
1 66402C 25257Y   26087.96923611  .02861300  00000+0  49093-1 0   872
2 66402  53.1599 127.3976 0001260 104.6179 349.5444 15.49156294    14
STARLINK-35602          
1 66403C 25257Z   26087.98659722  .00024859  00000+0  83801-3 0   879
2 66403  53.1590 127.3942 0001257  93.7788  55.6458 15.30171944    18
STARLINK-35691          
1 66404C 25257AA  26087.98381944  .00010798  00000+0  36396-3 0   872
2 66404  53.1587 127.3727 0001275  88.0129  63.5489 15.30182337    12
STARLINK-35683          
1 66405C 25257AB  26087.97548611  .00014635  00000+0  49333-3 0   877
2 66405  53.1585 127.3770 0001090  83.9453  39.1340 15.30180242    16
STARLINK-34840          
1 66406C 25257AC  26087.99701389  .00019244  00000+0  64869-3 0   875
2 66406  53.1584 127.2469 0001339  91.3713 162.0044 15.30177667    12
STARLINK-35686          
1 66407C 25257AD  26087.96715278  .00056167  00000+0  18921-2 0   877
2 66407  53.1582 127.3807 0001166  71.4812  23.0057 15.30179426    10
STARLINK-35679          
1 66408C 25257AE  26087.93520833  .00004103  00000+0  13829-3 0   872
2 66408  53.1588 127.5689 0001846  86.8904 168.3750 15.30186206    11
STARLINK-35617          
1 66422C 25259A   26087.91993056 -.00007104  00000+0 -25746-3 0   876
2 66422  43.0028 165.9540 0001589 281.3939 306.6293 15.27561919    13
STARLINK-35618          
1 66423C 25259B   26087.98312500  .00013878  00000+0  50261-3 0   876
2 66423  43.0035 165.5283 0001427 258.8190 345.4218 15.27574133    11
